[{"OBJECT_NAME":"STARLINK-5661","OBJECT_ID":"2023-013N","EPOCH":"2026-03-08T23:49:05.163168","MEAN_MOTION":15.02535792,"ECCENTRICITY":0.00017466,"INCLINATION":43.0055,"RA_OF_ASC_NODE":304.1967,"ARG_OF_PERICENTER":251.6664,"MEAN_ANOMALY":108.3988,"EPHEMERIS_TYPE":0,"CLASSIFICATION_TYPE":"U","NORAD_CAT_ID":55343,"ELEMENT_SET_NO":999,"REV_AT_EPOCH":17160,"BSTAR":-1.7246585e-5,"MEAN_MOTION_DOT":-4.37e-6,"MEAN_MOTION_DDOT":0},{"OBJECT_NAME":"CZ-6A DEB","OBJECT_ID":"2024-140AEQ","EPOCH":"2026-03-08T12:33:24.076512","MEAN_MOTION":14.8870666,"ECCENTRICITY":0.00636681,"INCLINATION":88.9441,"RA_OF_ASC_NODE":276.789,"ARG_OF_PERICENTER":190.9278,"MEAN_ANOMALY":169.0572,"EPHEMERIS_TYPE":0,"CLASSIFICATION_TYPE":"U","NORAD_CAT_ID":64650,"ELEMENT_SET_NO":999,"REV_AT_EPOCH":7602,"BSTAR":0.0049237892,"MEAN_MOTION_DOT":0.00048011,"MEAN_MOTION_DDOT":0}]
